LANDSAT 9               
1 49260U 21088A   23246.44586281  .00000607  00000+0  14477-3 0  9993
2 49260  98.2241 315.3810 0001483  96.7365 263.4002 14.57108903102796
